{
  "type": "FeatureCollection",
  "features": [
    {
      "type": "Feature",
      "properties": {
        "norad_id": 34425,
        "name": "COSMOS 2251 DEB",
        "group": "cosmos-2251-debris",
        "lat": -1.780463598382814,
        "lon": -149.25770448177013,
        "alt_km": 673.994950857068,
        "timestamp": "2025-12-25T09:48:52.683401+00:00",
        "meta_object_name": "COSMOS 2251 DEB",
        "meta_object_id": "1993-036RS",
        "meta_epoch": "2025-12-25T02:25:09.157152",
        "meta_mean_motion": 14.62192025,
        "meta_eccentricity": 0.002414,
        "meta_inclination": 74.019,
        "meta_ra_of_asc_node": 30.8223,
        "meta_arg_of_pericenter": 153.7433,
        "meta_mean_anomaly": 206.4963,
        "meta_ephemeris_type": 0,
        "meta_classification_type": "U",
        "meta_norad_cat_id": 34425,
        "meta_element_set_no": 999,
        "meta_rev_at_epoch": 88921,
        "meta_bstar": 0.0005427,
        "meta_mean_motion_dot": 2.714e-05,
        "meta_mean_motion_ddot": 0,
        "tle_line1": "1 34425U 93036RS  25359.10080043  .00002714  00000+0  54270-3 0  9993",
        "tle_line2": "2 34425  74.0190  30.8223 0024140 153.7433 206.4963 14.62192025889216"
      },
      "geometry": {
        "type": "Point",
        "coordinates": [
          -149.25770448177013,
          -1.780463598382814
        ]
      }
    },
    {
      "type": "Feature",
      "properties": {
        "norad_id": 34429,
        "name": "COSMOS 2251 DEB",
        "group": "cosmos-2251-debris",
        "lat": 16.7379103617296,
        "lon": 145.30849323014925,
        "alt_km": 417.66656932451497,
        "timestamp": "2025-12-25T09:48:52.683411+00:00",
        "meta_object_name": "COSMOS 2251 DEB",
        "meta_object_id": "1993-036RW",
        "meta_epoch": "2025-12-24T12:17:46.121568",
        "meta_mean_motion": 15.4672174,
        "meta_eccentricity": 0.001324,
        "meta_inclination": 73.969,
        "meta_ra_of_asc_node": 142.313,
        "meta_arg_of_pericenter": 345.0804,
        "meta_mean_anomaly": 81.2435,
        "meta_ephemeris_type": 0,
        "meta_classification_type": "U",
        "meta_norad_cat_id": 34429,
        "meta_element_set_no": 999,
        "meta_rev_at_epoch": 89630,
        "meta_bstar": 0.0059919728,
        "meta_mean_motion_dot": 0.00312947,
        "meta_mean_motion_ddot": 0,
        "tle_line1": "1 34429U 93036RW  25358.51233937  .00312947  00000+0  59920-2 0  9991",
        "tle_line2": "2 34429  73.9690 142.3130 0013240 345.0804  81.2435 15.46721740896302"
      },
      "geometry": {
        "type": "Point",
        "coordinates": [
          145.30849323014925,
          16.7379103617296
        ]
      }
    },
    {
      "type": "Feature",
      "properties": {
        "norad_id": 34430,
        "name": "COSMOS 2251 DEB",
        "group": "cosmos-2251-debris",
        "lat": 16.85353959856806,
        "lon": -75.04360092680291,
        "alt_km": 722.4360052513912,
        "timestamp": "2025-12-25T09:48:52.683426+00:00",
        "meta_object_name": "COSMOS 2251 DEB",
        "meta_object_id": "1993-036RX",
        "meta_epoch": "2025-12-24T22:03:36.961056",
        "meta_mean_motion": 14.3966779,
        "meta_eccentricity": 0.0060894,
        "meta_inclination": 74.0519,
        "meta_ra_of_asc_node": 280.8902,
        "meta_arg_of_pericenter": 347.715,
        "meta_mean_anomaly": 12.2516,
        "meta_ephemeris_type": 0,
        "meta_classification_type": "U",
        "meta_norad_cat_id": 34430,
        "meta_element_set_no": 999,
        "meta_rev_at_epoch": 88130,
        "meta_bstar": 0.00045261,
        "meta_mean_motion_dot": 1.42e-05,
        "meta_mean_motion_ddot": 0,
        "tle_line1": "1 34430U 93036RX  25358.91917779  .00001420  00000+0  45261-3 0  9995",
        "tle_line2": "2 34430  74.0519 280.8902 0060894 347.7150  12.2516 14.39667790881304"
      },
      "geometry": {
        "type": "Point",
        "coordinates": [
          -75.04360092680291,
          16.85353959856806
        ]
      }
    },
    {
      "type": "Feature",
      "properties": {
        "norad_id": 34431,
        "name": "COSMOS 2251 DEB",
        "group": "cosmos-2251-debris",
        "lat": 33.84598381167544,
        "lon": -38.77231850495341,
        "alt_km": 745.3190626257492,
        "timestamp": "2025-12-25T09:48:52.683438+00:00",
        "meta_object_name": "COSMOS 2251 DEB",
        "meta_object_id": "1993-036RY",
        "meta_epoch": "2025-12-24T19:42:02.444832",
        "meta_mean_motion": 14.28814588,
        "meta_eccentricity": 0.00677003,
        "meta_inclination": 74.074,
        "meta_ra_of_asc_node": 153.331,
        "meta_arg_of_pericenter": 135.8066,
        "meta_mean_anomaly": 224.852,
        "meta_ephemeris_type": 0,
        "meta_classification_type": "U",
        "meta_norad_cat_id": 34431,
        "meta_element_set_no": 999,
        "meta_rev_at_epoch": 87315,
        "meta_bstar": 0.00067957394,
        "meta_mean_motion_dot": 1.731e-05,
        "meta_mean_motion_ddot": 0,
        "tle_line1": "1 34431U 93036RY  25358.82086163  .00001731  00000+0  67957-3 0  9991",
        "tle_line2": "2 34431  74.0740 153.3310 0067700 135.8066 224.8520 14.28814588873150"
      },
      "geometry": {
        "type": "Point",
        "coordinates": [
          -38.77231850495341,
          33.84598381167544
        ]
      }
    },
    {
      "type": "Feature",
      "properties": {
        "norad_id": 34432,
        "name": "COSMOS 2251 DEB",
        "group": "cosmos-2251-debris",
        "lat": 47.659530726602554,
        "lon": 98.57226317148664,
        "alt_km": 922.5092427737045,
        "timestamp": "2025-12-25T09:48:52.683448+00:00",
        "meta_object_name": "COSMOS 2251 DEB",
        "meta_object_id": "1993-036RZ",
        "meta_epoch": "2025-12-25T00:10:24.819744",
        "meta_mean_motion": 14.02956192,
        "meta_eccentricity": 0.0181372,
        "meta_inclination": 73.8286,
        "meta_ra_of_asc_node": 80.7113,
        "meta_arg_of_pericenter": 161.4566,
        "meta_mean_anomaly": 22.7684,
        "meta_ephemeris_type": 0,
        "meta_classification_type": "U",
        "meta_norad_cat_id": 34432,
        "meta_element_set_no": 999,
        "meta_rev_at_epoch": 85856,
        "meta_bstar": 0.0011433,
        "meta_mean_motion_dot": 2.026e-05,
        "meta_mean_motion_ddot": 0,
        "tle_line1": "1 34432U 93036RZ  25359.00723171  .00002026  00000+0  11433-2 0  9995",
        "tle_line2": "2 34432  73.8286  80.7113 0181372 161.4566  22.7684 14.02956192858563"
      },
      "geometry": {
        "type": "Point",
        "coordinates": [
          98.57226317148664,
          47.659530726602554
        ]
      }
    },
    {
      "type": "Feature",
      "properties": {
        "norad_id": 34433,
        "name": "COSMOS 2251 DEB",
        "group": "cosmos-2251-debris",
        "lat": 11.746416771023712,
        "lon": -50.91773334858062,
        "alt_km": 868.3315960544505,
        "timestamp": "2025-12-25T09:48:52.683458+00:00",
        "meta_object_name": "COSMOS 2251 DEB",
        "meta_object_id": "1993-036SA",
        "meta_epoch": "2025-12-25T02:12:36.614016",
        "meta_mean_motion": 14.12907554,
        "meta_eccentricity": 0.015284,
        "meta_inclination": 74.0102,
        "meta_ra_of_asc_node": 133.0614,
        "meta_arg_of_pericenter": 268.5186,
        "meta_mean_anomaly": 89.8442,
        "meta_ephemeris_type": 0,
        "meta_classification_type": "U",
        "meta_norad_cat_id": 34433,
        "meta_element_set_no": 999,
        "meta_rev_at_epoch": 86124,
        "meta_bstar": 0.0013759,
        "meta_mean_motion_dot": 2.836e-05,
        "meta_mean_motion_ddot": 0,
        "tle_line1": "1 34433U 93036SA  25359.09209044  .00002836  00000+0  13759-2 0  9995",
        "tle_line2": "2 34433  74.0102 133.0614 0152840 268.5186  89.8442 14.12907554861241"
      },
      "geometry": {
        "type": "Point",
        "coordinates": [
          -50.91773334858062,
          11.746416771023712
        ]
      }
    },
    {
      "type": "Feature",
      "properties": {
        "norad_id": 34434,
        "name": "COSMOS 2251 DEB",
        "group": "cosmos-2251-debris",
        "lat": 73.97988422876455,
        "lon": 72.94578500905432,
        "alt_km": 754.8998427962515,
        "timestamp": "2025-12-25T09:48:52.683468+00:00",
        "meta_object_name": "COSMOS 2251 DEB",
        "meta_object_id": "1993-036SB",
        "meta_epoch": "2025-12-25T04:41:29.673312",
        "meta_mean_motion": 13.89880874,
        "meta_eccentricity": 0.0273478,
        "meta_inclination": 74.0626,
        "meta_ra_of_asc_node": 348.9386,
        "meta_arg_of_pericenter": 123.206,
        "meta_mean_anomaly": 339.3299,
        "meta_ephemeris_type": 0,
        "meta_classification_type": "U",
        "meta_norad_cat_id": 34434,
        "meta_element_set_no": 999,
        "meta_rev_at_epoch": 84139,
        "meta_bstar": 0.0020112,
        "meta_mean_motion_dot": 3.324e-05,
        "meta_mean_motion_ddot": 0,
        "tle_line1": "1 34434U 93036SB  25359.19548233  .00003324  00000+0  20112-2 0  9997",
        "tle_line2": "2 34434  74.0626 348.9386 0273478 123.2060 339.3299 13.89880874841390"
      },
      "geometry": {
        "type": "Point",
        "coordinates": [
          72.94578500905432,
          73.97988422876455
        ]
      }
    }
  ]
}